{
  "type": "FeatureCollection",
  "features": [
    {
      "type": "Feature",
      "properties": {
        "norad_id": 33886,
        "name": "IRIDIUM 33 DEB",
        "group": "iridium-33-debris",
        "lat": -47.88219832701062,
        "lon": -113.66972466459167,
        "alt_km": 769.9675715511994,
        "timestamp": "2025-12-24T09:46:31.389005+00:00",
        "meta_object_name": "IRIDIUM 33 DEB",
        "meta_object_id": "1997-051BF",
        "meta_epoch": "2025-12-24T03:47:51.511776",
        "meta_mean_motion": 14.36064559,
        "meta_eccentricity": 0.0013372,
        "meta_inclination": 86.382,
        "meta_ra_of_asc_node": 62.4223,
        "meta_arg_of_pericenter": 201.1146,
        "meta_mean_anomaly": 179.8883,
        "meta_ephemeris_type": 0,
        "meta_classification_type": "U",
        "meta_norad_cat_id": 33886,
        "meta_element_set_no": 999,
        "meta_rev_at_epoch": 88216,
        "meta_bstar": 0.00017797,
        "meta_mean_motion_dot": 5.38e-06,
        "meta_mean_motion_ddot": 0,
        "tle_line1": "1 33886U 97051BF  25358.15823509  .00000538  00000+0  17797-3 0  9995",
        "tle_line2": "2 33886  86.3820  62.4223 0013372 201.1146 179.8883 14.36064559882169"
      },
      "geometry": {
        "type": "Point",
        "coordinates": [
          -113.66972466459167,
          -47.88219832701062
        ]
      }
    },
    {
      "type": "Feature",
      "properties": {
        "norad_id": 33887,
        "name": "IRIDIUM 33 DEB",
        "group": "iridium-33-debris",
        "lat": -33.163664293077865,
        "lon": -179.21544590890977,
        "alt_km": 770.418953546693,
        "timestamp": "2025-12-24T09:46:31.389016+00:00",
        "meta_object_name": "IRIDIUM 33 DEB",
        "meta_object_id": "1997-051BG",
        "meta_epoch": "2025-12-24T00:40:58.383264",
        "meta_mean_motion": 14.37230664,
        "meta_eccentricity": 0.000568,
        "meta_inclination": 86.3042,
        "meta_ra_of_asc_node": 358.527,
        "meta_arg_of_pericenter": 183.0927,
        "meta_mean_anomaly": 231.047,
        "meta_ephemeris_type": 0,
        "meta_classification_type": "U",
        "meta_norad_cat_id": 33887,
        "meta_element_set_no": 999,
        "meta_rev_at_epoch": 88327,
        "meta_bstar": 0.00013926,
        "meta_mean_motion_dot": 4.34e-06,
        "meta_mean_motion_ddot": 0,
        "tle_line1": "1 33887U 97051BG  25358.02845351  .00000434  00000+0  13926-3 0  9996",
        "tle_line2": "2 33887  86.3042 358.5270 0005680 183.0927 231.0470 14.37230664883274"
      },
      "geometry": {
        "type": "Point",
        "coordinates": [
          -179.21544590890977,
          -33.163664293077865
        ]
      }
    },
    {
      "type": "Feature",
      "properties": {
        "norad_id": 33953,
        "name": "IRIDIUM 33 DEB",
        "group": "iridium-33-debris",
        "lat": 69.60349959233287,
        "lon": -141.08010814048205,
        "alt_km": 692.1416852296361,
        "timestamp": "2025-12-24T09:46:31.389028+00:00",
        "meta_object_name": "IRIDIUM 33 DEB",
        "meta_object_id": "1997-051BN",
        "meta_epoch": "2025-12-24T02:46:21.899136",
        "meta_mean_motion": 14.55425876,
        "meta_eccentricity": 0.0017677,
        "meta_inclination": 86.383,
        "meta_ra_of_asc_node": 48.8412,
        "meta_arg_of_pericenter": 68.0376,
        "meta_mean_anomaly": 314.0842,
        "meta_ephemeris_type": 0,
        "meta_classification_type": "U",
        "meta_norad_cat_id": 33953,
        "meta_element_set_no": 999,
        "meta_rev_at_epoch": 88469,
        "meta_bstar": 0.0011436,
        "meta_mean_motion_dot": 5e-05,
        "meta_mean_motion_ddot": 0,
        "tle_line1": "1 33953U 97051BN  25358.11553124  .00005000  00000+0  11436-2 0  9991",
        "tle_line2": "2 33953  86.3830  48.8412 0017677  68.0376 314.0842 14.55425876884692"
      },
      "geometry": {
        "type": "Point",
        "coordinates": [
          -141.08010814048205,
          69.60349959233287
        ]
      }
    },
    {
      "type": "Feature",
      "properties": {
        "norad_id": 33960,
        "name": "IRIDIUM 33 DEB",
        "group": "iridium-33-debris",
        "lat": 82.39550074985286,
        "lon": 74.62070259385962,
        "alt_km": 600.9680285724507,
        "timestamp": "2025-12-24T09:46:31.389039+00:00",
        "meta_object_name": "IRIDIUM 33 DEB",
        "meta_object_id": "1997-051BV",
        "meta_epoch": "2025-12-24T01:19:20.742816",
        "meta_mean_motion": 14.85736917,
        "meta_eccentricity": 0.0007198,
        "meta_inclination": 86.2538,
        "meta_ra_of_asc_node": 284.1777,
        "meta_arg_of_pericenter": 42.5322,
        "meta_mean_anomaly": 331.4121,
        "meta_ephemeris_type": 0,
        "meta_classification_type": "U",
        "meta_norad_cat_id": 33960,
        "meta_element_set_no": 999,
        "meta_rev_at_epoch": 89035,
        "meta_bstar": 0.0029926,
        "meta_mean_motion_dot": 0.00026082,
        "meta_mean_motion_ddot": 0,
        "tle_line1": "1 33960U 97051BV  25358.05510119  .00026082  00000+0  29926-2 0  9995",
        "tle_line2": "2 33960  86.2538 284.1777 0007198  42.5322 331.4121 14.85736917890355"
      },
      "geometry": {
        "type": "Point",
        "coordinates": [
          74.62070259385962,
          82.39550074985286
        ]
      }
    },
    {
      "type": "Feature",
      "properties": {
        "norad_id": 33966,
        "name": "IRIDIUM 33 DEB",
        "group": "iridium-33-debris",
        "lat": -5.863002832699808,
        "lon": 40.64808457278074,
        "alt_km": 736.3256801860161,
        "timestamp": "2025-12-24T09:46:31.389050+00:00",
        "meta_object_name": "IRIDIUM 33 DEB",
        "meta_object_id": "1997-051CB",
        "meta_epoch": "2025-12-24T03:25:26.789088",
        "meta_mean_motion": 14.49636291,
        "meta_eccentricity": 0.0008651,
        "meta_inclination": 86.391,
        "meta_ra_of_asc_node": 41.133,
        "meta_arg_of_pericenter": 152.8356,
        "meta_mean_anomaly": 261.2768,
        "meta_ephemeris_type": 0,
        "meta_classification_type": "U",
        "meta_norad_cat_id": 33966,
        "meta_element_set_no": 999,
        "meta_rev_at_epoch": 88607,
        "meta_bstar": 0.0004701,
        "meta_mean_motion_dot": 1.826e-05,
        "meta_mean_motion_ddot": 0,
        "tle_line1": "1 33966U 97051CB  25358.14267117  .00001826  00000+0  47010-3 0  9992",
        "tle_line2": "2 33966  86.3910  41.1330 0008651 152.8356 261.2768 14.49636291886074"
      },
      "geometry": {
        "type": "Point",
        "coordinates": [
          40.64808457278074,
          -5.863002832699808
        ]
      }
    },
    {
      "type": "Feature",
      "properties": {
        "norad_id": 34071,
        "name": "IRIDIUM 33 DEB",
        "group": "iridium-33-debris",
        "lat": 55.09518499038309,
        "lon": 18.012550493306648,
        "alt_km": 715.5222865280239,
        "timestamp": "2025-12-24T09:46:31.389060+00:00",
        "meta_object_name": "IRIDIUM 33 DEB",
        "meta_object_id": "1997-051CE",
        "meta_epoch": "2025-12-24T01:14:15.700704",
        "meta_mean_motion": 14.49512497,
        "meta_eccentricity": 0.0009894,
        "meta_inclination": 86.3449,
        "meta_ra_of_asc_node": 12.9107,
        "meta_arg_of_pericenter": 77.4352,
        "meta_mean_anomaly": 282.7958,
        "meta_ephemeris_type": 0,
        "meta_classification_type": "U",
        "meta_norad_cat_id": 34071,
        "meta_element_set_no": 999,
        "meta_rev_at_epoch": 88498,
        "meta_bstar": 0.00061967,
        "meta_mean_motion_dot": 2.395e-05,
        "meta_mean_motion_ddot": 0,
        "tle_line1": "1 34071U 97051CE  25358.05157061  .00002395  00000+0  61967-3 0  9995",
        "tle_line2": "2 34071  86.3449  12.9107 0009894  77.4352 282.7958 14.49512497884983"
      },
      "geometry": {
        "type": "Point",
        "coordinates": [
          18.012550493306648,
          55.09518499038309
        ]
      }
    },
    {
      "type": "Feature",
      "properties": {
        "norad_id": 34077,
        "name": "IRIDIUM 33 DEB",
        "group": "iridium-33-debris",
        "lat": -4.192304497965292,
        "lon": -133.36757255838123,
        "alt_km": 687.0304308375416,
        "timestamp": "2025-12-24T09:46:31.389071+00:00",
        "meta_object_name": "IRIDIUM 33 DEB",
        "meta_object_id": "1997-051CL",
        "meta_epoch": "2025-12-24T04:17:25.302912",
        "meta_mean_motion": 14.64970223,
        "meta_eccentricity": 0.0008863,
        "meta_inclination": 86.3848,
        "meta_ra_of_asc_node": 46.4676,
        "meta_arg_of_pericenter": 1.8238,
        "meta_mean_anomaly": 57.733,
        "meta_ephemeris_type": 0,
        "meta_classification_type": "U",
        "meta_norad_cat_id": 34077,
        "meta_element_set_no": 999,
        "meta_rev_at_epoch": 88500,
        "meta_bstar": 0.0014519,
        "meta_mean_motion_dot": 7.8e-05,
        "meta_mean_motion_ddot": 0,
        "tle_line1": "1 34077U 97051CL  25358.17876508  .00007800  00000+0  14519-2 0  9994",
        "tle_line2": "2 34077  86.3848  46.4676 0008863   1.8238  57.7330 14.64970223885004"
      },
      "geometry": {
        "type": "Point",
        "coordinates": [
          -133.36757255838123,
          -4.192304497965292
        ]
      }
    }
  ]
}